{
    "week": 287,
    "satellites": [
        {
            "Name": "GSAT0208 (GALILEO 11)",
            "Line1": "1 41175U 15079B   24280.99974074  .00000058  00000+0  00000+0 0  9996",
            "Line2": "2 41175  55.4741 118.2389 0001931   9.3792 350.7019  1.70474042 54656",
            "SatelliteNumber": "41175",
            "Classification": "U",
            "LaunchYear": "15",
            "LaunchNumber": "079",
            "PieceOfLaunch": "B",
            "EpochYear": "24",
            "EpochDay": 280.99974074,
            "FirstDerivativeMeanMotion": 5.8e-07,
            "SecondDerivativeMeanMotion": "00000+0",
            "BSTAR": "00000+0",
            "SetNumber": "999",
            "Inclination": 55.4741,
            "RAAN": 118.2389,
            "Eccentricity": 0.0001931,
            "ArgumentOfPerigee": 9.3792,
            "MeanAnomaly": 350.7019,
            "MeanMotion": 1.70474042,
            "RevolutionNumber": "5465"
        },
        {
            "Name": "GSAT0211 (GALILEO 14)",
            "Line1": "1 41549U 16030A   24279.94913751  .00000014  00000+0  00000+0 0  9999",
            "Line2": "2 41549  55.3205 238.7282 0003506 327.5933  32.3519  1.70473223 52114",
            "SatelliteNumber": "41549",
            "Classification": "U",
            "LaunchYear": "16",
            "LaunchNumber": "030",
            "PieceOfLaunch": "A",
            "EpochYear": "24",
            "EpochDay": 279.94913751,
            "FirstDerivativeMeanMotion": 1.4e-07,
            "SecondDerivativeMeanMotion": "00000+0",
            "BSTAR": "00000+0",
            "SetNumber": "999",
            "Inclination": 55.3205,
            "RAAN": 238.7282,
            "Eccentricity": 0.0003506,
            "ArgumentOfPerigee": 327.5933,
            "MeanAnomaly": 32.3519,
            "MeanMotion": 1.70473223,
            "RevolutionNumber": "5211"
        },
        {
            "Name": "GSAT0210 (GALILEO 13)",
            "Line1": "1 41550U 16030B   24280.20724862  .00000016  00000+0  00000+0 0  9997",
            "Line2": "2 41550  55.3197 238.7195 0003413 246.1524 113.7801  1.70473621 52118",
            "SatelliteNumber": "41550",
            "Classification": "U",
            "LaunchYear": "16",
            "LaunchNumber": "030",
            "PieceOfLaunch": "B",
            "EpochYear": "24",
            "EpochDay": 280.20724862,
            "FirstDerivativeMeanMotion": 1.6e-07,
            "SecondDerivativeMeanMotion": "00000+0",
            "BSTAR": "00000+0",
            "SetNumber": "999",
            "Inclination": 55.3197,
            "RAAN": 238.7195,
            "Eccentricity": 0.0003413,
            "ArgumentOfPerigee": 246.1524,
            "MeanAnomaly": 113.7801,
            "MeanMotion": 1.70473621,
            "RevolutionNumber": "5211"
        },
        {
            "Name": "GSAT0207 (GALILEO 15)",
            "Line1": "1 41859U 16069A   24281.07345993  .00000058  00000+0  00000+0 0  9997",
            "Line2": "2 41859  55.1404 118.2133 0001994 326.4345  33.6301  1.70474142 48869",
            "SatelliteNumber": "41859",
            "Classification": "U",
            "LaunchYear": "16",
            "LaunchNumber": "069",
            "PieceOfLaunch": "A",
            "EpochYear": "24",
            "EpochDay": 281.07345993,
            "FirstDerivativeMeanMotion": 5.8e-07,
            "SecondDerivativeMeanMotion": "00000+0",
            "BSTAR": "00000+0",
            "SetNumber": "999",
            "Inclination": 55.1404,
            "RAAN": 118.2133,
            "Eccentricity": 0.0001994,
            "ArgumentOfPerigee": 326.4345,
            "MeanAnomaly": 33.6301,
            "MeanMotion": 1.70474142,
            "RevolutionNumber": "4886"
        },
        {
            "Name": "GSAT0212 (GALILEO 16)",
            "Line1": "1 41860U 16069B   24279.75448155  .00000057  00000+0  00000+0 0  9994",
            "Line2": "2 41860  55.1373 118.2460 0002312  31.3112 328.7861  1.70474332 49094",
            "SatelliteNumber": "41860",
            "Classification": "U",
            "LaunchYear": "16",
            "LaunchNumber": "069",
            "PieceOfLaunch": "B",
            "EpochYear": "24",
            "EpochDay": 279.75448155,
            "FirstDerivativeMeanMotion": 5.7e-07,
            "SecondDerivativeMeanMotion": "00000+0",
            "BSTAR": "00000+0",
            "SetNumber": "999",
            "Inclination": 55.1373,
            "RAAN": 118.246,
            "Eccentricity": 0.0002312,
            "ArgumentOfPerigee": 31.3112,
            "MeanAnomaly": 328.7861,
            "MeanMotion": 1.70474332,
            "RevolutionNumber": "4909"
        },
        {
            "Name": "GSAT0213 (GALILEO 17)",
            "Line1": "1 41861U 16069C   24280.12286208  .00000057  00000+0  00000+0 0  9997",
            "Line2": "2 41861  55.1398 118.2428 0001757 280.3757  79.6861  1.70474724 48961",
            "SatelliteNumber": "41861",
            "Classification": "U",
            "LaunchYear": "16",
            "LaunchNumber": "069",
            "PieceOfLaunch": "C",
            "EpochYear": "24",
            "EpochDay": 280.12286208,
            "FirstDerivativeMeanMotion": 5.7e-07,
            "SecondDerivativeMeanMotion": "00000+0",
            "BSTAR": "00000+0",
            "SetNumber": "999",
            "Inclination": 55.1398,
            "RAAN": 118.2428,
            "Eccentricity": 0.0001757,
            "ArgumentOfPerigee": 280.3757,
            "MeanAnomaly": 79.6861,
            "MeanMotion": 1.70474724,
            "RevolutionNumber": "4896"
        },
        {
            "Name": "GSAT0214 (GALILEO 18)",
            "Line1": "1 41862U 16069D   24280.85478960  .00000057  00000+0  00000+0 0  9996",
            "Line2": "2 41862  55.1392 118.2161 0000835 290.8141  69.2550  1.70474349 49109",
            "SatelliteNumber": "41862",
            "Classification": "U",
            "LaunchYear": "16",
            "LaunchNumber": "069",
            "PieceOfLaunch": "D",
            "EpochYear": "24",
            "EpochDay": 280.8547896,
            "FirstDerivativeMeanMotion": 5.7e-07,
            "SecondDerivativeMeanMotion": "00000+0",
            "BSTAR": "00000+0",
            "SetNumber": "999",
            "Inclination": 55.1392,
            "RAAN": 118.2161,
            "Eccentricity": 8.35e-05,
            "ArgumentOfPerigee": 290.8141,
            "MeanAnomaly": 69.255,
            "MeanMotion": 1.70474349,
            "RevolutionNumber": "4910"
        },
        {
            "Name": "GSAT0215 (GALILEO 19)",
            "Line1": "1 43055U 17079A   24281.34406125  .00000021  00000+0  00000+0 0  9994",
            "Line2": "2 43055  55.2968 238.5102 0002880 277.9730  81.9692  1.70473871 42456",
            "SatelliteNumber": "43055",
            "Classification": "U",
            "LaunchYear": "17",
            "LaunchNumber": "079",
            "PieceOfLaunch": "A",
            "EpochYear": "24",
            "EpochDay": 281.34406125,
            "FirstDerivativeMeanMotion": 2.1e-07,
            "SecondDerivativeMeanMotion": "00000+0",
            "BSTAR": "00000+0",
            "SetNumber": "999",
            "Inclination": 55.2968,
            "RAAN": 238.5102,
            "Eccentricity": 0.000288,
            "ArgumentOfPerigee": 277.973,
            "MeanAnomaly": 81.9692,
            "MeanMotion": 1.70473871,
            "RevolutionNumber": "4245"
        },
        {
            "Name": "GSAT0216 (GALILEO 20)",
            "Line1": "1 43056U 17079B   24281.04908887  .00000020  00000+0  00000+0 0  9993",
            "Line2": "2 43056  55.2970 238.5182 0004360 283.3619  76.5628  1.70474018 42464",
            "SatelliteNumber": "43056",
            "Classification": "U",
            "LaunchYear": "17",
            "LaunchNumber": "079",
            "PieceOfLaunch": "B",
            "EpochYear": "24",
            "EpochDay": 281.04908887,
            "FirstDerivativeMeanMotion": 2e-07,
            "SecondDerivativeMeanMotion": "00000+0",
            "BSTAR": "00000+0",
            "SetNumber": "999",
            "Inclination": 55.297,
            "RAAN": 238.5182,
            "Eccentricity": 0.000436,
            "ArgumentOfPerigee": 283.3619,
            "MeanAnomaly": 76.5628,
            "MeanMotion": 1.70474018,
            "RevolutionNumber": "4246"
        },
        {
            "Name": "GSAT0217 (GALILEO 21)",
            "Line1": "1 43057U 17079C   24280.68301459  .00000018  00000+0  00000+0 0  9992",
            "Line2": "2 43057  55.2953 238.5269 0003847 298.2141  61.7182  1.70473978 42449",
            "SatelliteNumber": "43057",
            "Classification": "U",
            "LaunchYear": "17",
            "LaunchNumber": "079",
            "PieceOfLaunch": "C",
            "EpochYear": "24",
            "EpochDay": 280.68301459,
            "FirstDerivativeMeanMotion": 1.8e-07,
            "SecondDerivativeMeanMotion": "00000+0",
            "BSTAR": "00000+0",
            "SetNumber": "999",
            "Inclination": 55.2953,
            "RAAN": 238.5269,
            "Eccentricity": 0.0003847,
            "ArgumentOfPerigee": 298.2141,
            "MeanAnomaly": 61.7182,
            "MeanMotion": 1.70473978,
            "RevolutionNumber": "4244"
        }
    ]
}